{"type": "FeatureCollection", "features": [ {"type": "Feature", "properties": {"norad_id": 17070, "name": "POLAR BEAR", "group": "nnss", "lat": 85.58452336289618, "lon": -1.2336149620074357, "alt_km": 945.292158494286, "timestamp": "2025-12-13T18:50:04.699104+00:00", "meta": {"OBJECT_NAME": "POLAR BEAR", "OBJECT_ID": "1986-088A", "EPOCH": "2025-12-13T06:59:34.795680", "MEAN_MOTION": 13.75250891, "ECCENTRICITY": 0.00410042, "INCLINATION": 89.6173, "RA_OF_ASC_NODE": 183.7517, "ARG_OF_PERICENTER": 117.6351, "MEAN_ANOMALY": 55.6343, "EPHEMERIS_TYPE": 0, "CLASSIFICATION_TYPE": "U", "NORAD_CAT_ID": 17070, "ELEMENT_SET_NO": 999, "REV_AT_EPOCH": 95986, "BSTAR": 0.00014788839, "MEAN_MOTION_DOT": 1.54e-06, "MEAN_MOTION_DDOT": 0}, "tle": {"line1": "1 17070U 86088A   25347.29137495  .00000154  00000+0  14789-3 0  9997", "line2": "2 17070  89.6173 183.7517 0041004 117.6351  55.6343 13.75250891959860"}}, "geometry": {"type": "Point", "coordinates": [-1.2336149620074357, 85.58452336289618]}}, {"type": "Feature", "properties": {"norad_id": 18361, "name": "OSCAR 27", "group": "nnss", "lat": -58.42673773371684, "lon": -101.29789117969564, "alt_km": 1024.8419204353286, "timestamp": "2025-12-13T18:50:04.699128+00:00", "meta": {"OBJECT_NAME": "OSCAR 27", "OBJECT_ID": "1987-080A", "EPOCH": "2025-12-13T06:56:14.468640", "MEAN_MOTION": 13.44906896, "ECCENTRICITY": 0.01029546, "INCLINATION": 90.3743, "RA_OF_ASC_NODE": 79.293, "ARG_OF_PERICENTER": 222.2209, "MEAN_ANOMALY": 137.0978, "EPHEMERIS_TYPE": 0, "CLASSIFICATION_TYPE": "U", "NORAD_CAT_ID": 18361, "ELEMENT_SET_NO": 999, "REV_AT_EPOCH": 87564, "BSTAR": 0.00022675514, "MEAN_MOTION_DOT": 1.45e-06, "MEAN_MOTION_DDOT": 0}, "tle": {"line1": "1 18361U 87080A   25347.28905635  .00000145  00000+0  22676-3 0  9996", "line2": "2 18361  90.3743  79.2930 0102954 222.2209 137.0978 13.44906896875642"}}, "geometry": {"type": "Point", "coordinates": [-101.29789117969564, -58.42673773371684]}}, {"type": "Feature", "properties": {"norad_id": 18362, "name": "OSCAR 29", "group": "nnss", "lat": -68.61610127986229, "lon": -101.1886705350509, "alt_km": 1022.665161715503, "timestamp": "2025-12-13T18:50:04.699144+00:00", "meta": {"OBJECT_NAME": "OSCAR 29", "OBJECT_ID": "1987-080B", "EPOCH": "2025-12-13T07:10:41.802816", "MEAN_MOTION": 13.44448531, "ECCENTRICITY": 0.01039547, "INCLINATION": 90.3753, "RA_OF_ASC_NODE": 79.7522, "ARG_OF_PERICENTER": 245.5417, "MEAN_ANOMALY": 173.6244, "EPHEMERIS_TYPE": 0, "CLASSIFICATION_TYPE": "U", "NORAD_CAT_ID": 18362, "ELEMENT_SET_NO": 999, "REV_AT_EPOCH": 87517, "BSTAR": 0.00019152638, "MEAN_MOTION_DOT": 1.22e-06, "MEAN_MOTION_DDOT": 0}, "tle": {"line1": "1 18362U 87080B   25347.29909494  .00000122  00000+0  19153-3 0  9996", "line2": "2 18362  90.3753  79.7522 0103954 245.5417 173.6244 13.44448531875173"}}, "geometry": {"type": "Point", "coordinates": [-101.1886705350509, -68.61610127986229]}}, {"type": "Feature", "properties": {"norad_id": 19070, "name": "OSCAR 23", "group": "nnss", "lat": -37.5997009216427, "lon": 16.672753427013326, "alt_km": 1278.3291014821198, "timestamp": "2025-12-13T18:50:04.699155+00:00", "meta": {"OBJECT_NAME": "OSCAR 23", "OBJECT_ID": "1988-033A", "EPOCH": "2025-12-13T08:13:55.937856", "MEAN_MOTION": 13.27787225, "ECCENTRICITY": 0.01895805, "INCLINATION": 90.3213, "RA_OF_ASC_NODE": 16.4114, "ARG_OF_PERICENTER": 178.2447, "MEAN_ANOMALY": 192.5668, "EPHEMERIS_TYPE": 0, "CLASSIFICATION_TYPE": "U", "NORAD_CAT_ID": 19070, "ELEMENT_SET_NO": 999, "REV_AT_EPOCH": 82261, "BSTAR": 0.00017608612, "MEAN_MOTION_DOT": 9.6e-07, "MEAN_MOTION_DDOT": 0}, "tle": {"line1": "1 19070U 88033A   25347.34300854  .00000096  00000+0  17609-3 0  9997", "line2": "2 19070  90.3213  16.4114 0189580 178.2447 192.5668 13.27787225822618"}}, "geometry": {"type": "Point", "coordinates": [16.672753427013326, -37.5997009216427]}}, {"type": "Feature", "properties": {"norad_id": 19071, "name": "OSCAR 32", "group": "nnss", "lat": 69.99545275862577, "lon": 15.672729823979992, "alt_km": 1154.6732773620124, "timestamp": "2025-12-13T18:50:04.699166+00:00", "meta": {"OBJECT_NAME": "OSCAR 32", "OBJECT_ID": "1988-033B", "EPOCH": "2025-12-13T07:41:12.269760", "MEAN_MOTION": 13.27954073, "ECCENTRICITY": 0.01884189, "INCLINATION": 90.3218, "RA_OF_ASC_NODE": 16.5427, "ARG_OF_PERICENTER": 165.1766, "MEAN_ANOMALY": 207.7212, "EPHEMERIS_TYPE": 0, "CLASSIFICATION_TYPE": "U", "NORAD_CAT_ID": 19071, "ELEMENT_SET_NO": 999, "REV_AT_EPOCH": 82273, "BSTAR": 0.00019355788, "MEAN_MOTION_DOT": 1.05e-06, "MEAN_MOTION_DDOT": 0}, "tle": {"line1": "1 19071U 88033B   25347.32028090  .00000105  00000+0  19356-3 0  9997", "line2": "2 19071  90.3218  16.5427 0188418 165.1766 207.7212 13.27954073822734"}}, "geometry": {"type": "Point", "coordinates": [15.672729823979992, 69.99545275862577]}}, {"type": "Feature", "properties": {"norad_id": 19223, "name": "NOVA 2", "group": "nnss", "lat": -70.31642880293279, "lon": -101.692730764679, "alt_km": 1193.6803820811883, "timestamp": "2025-12-13T18:50:04.699177+00:00", "meta": {"OBJECT_NAME": "NOVA 2", "OBJECT_ID": "1988-052A", "EPOCH": "2025-12-13T06:58:55.825824", "MEAN_MOTION": 13.22935915, "ECCENTRICITY": 0.00305458, "INCLINATION": 89.9871, "RA_OF_ASC_NODE": 78.2718, "ARG_OF_PERICENTER": 15.4013, "MEAN_ANOMALY": 44.5186, "EPHEMERIS_TYPE": 0, "CLASSIFICATION_TYPE": "U", "NORAD_CAT_ID": 19223, "ELEMENT_SET_NO": 999, "REV_AT_EPOCH": 80955, "BSTAR": 0.00018175727, "MEAN_MOTION_DOT": 8.5e-07, "MEAN_MOTION_DDOT": 0}, "tle": {"line1": "1 19223U 88052A   25347.29092391  .00000085  00000+0  18176-3 0  9994", "line2": "2 19223  89.9871  78.2718 0030545  15.4013  44.5186 13.22935915809550"}}, "geometry": {"type": "Point", "coordinates": [-101.692730764679, -70.31642880293279]}}, {"type": "Feature", "properties": {"norad_id": 19419, "name": "OSCAR 25", "group": "nnss", "lat": 41.04723615366903, "lon": 20.217451067468204, "alt_km": 1161.8376946025492, "timestamp": "2025-12-13T18:50:04.699188+00:00", "meta": {"OBJECT_NAME": "OSCAR 25", "OBJECT_ID": "1988-074A", "EPOCH": "2025-12-13T07:57:09.485856", "MEAN_MOTION": 13.42623393, "ECCENTRICITY": 0.0094466, "INCLINATION": 90.0348, "RA_OF_ASC_NODE": 20.2462, "ARG_OF_PERICENTER": 244.1215, "MEAN_ANOMALY": 126.3325, "EPHEMERIS_TYPE": 0, "CLASSIFICATION_TYPE": "U", "NORAD_CAT_ID": 19419, "ELEMENT_SET_NO": 999, "REV_AT_EPOCH": 82648, "BSTAR": 0.000205936, "MEAN_MOTION_DOT": 1.28e-06, "MEAN_MOTION_DDOT": 0}, "tle": {"line1": "1 19419U 88074A   25347.33135979  .00000128  00000+0  20594-3 0  9995", "line2": "2 19419  90.0348  20.2462 0094466 244.1215 126.3325 13.42623393826480"}}, "geometry": {"type": "Point", "coordinates": [20.217451067468204, 41.04723615366903]}}, {"type": "Feature", "properties": {"norad_id": 19420, "name": "OSCAR 31", "group": "nnss", "lat": -74.89344629267464, "lon": 20.732850934670115, "alt_km": 1060.4802895611183, "timestamp": "2025-12-13T18:50:04.699198+00:00", "meta": {"OBJECT_NAME": "OSCAR 31", "OBJECT_ID": "1988-074B", "EPOCH": "2025-12-13T03:24:45.124416", "MEAN_MOTION": 13.42584645, "ECCENTRICITY": 0.00927729, "INCLINATION": 90.0364, "RA_OF_ASC_NODE": 20.5956, "ARG_OF_PERICENTER": 238.7841, "MEAN_ANOMALY": 181.5784, "EPHEMERIS_TYPE": 0, "CLASSIFICATION_TYPE": "U", "NORAD_CAT_ID": 19420, "ELEMENT_SET_NO": 999, "REV_AT_EPOCH": 82656, "BSTAR": 0.00016795931, "MEAN_MOTION_DOT": 1.06e-06, "MEAN_MOTION_DDOT": 0}, "tle": {"line1": "1 19420U 88074B   25347.14218894  .00000106  00000+0  16796-3 0  9999", "line2": "2 19420  90.0364  20.5956 0092772 238.7841 181.5784 13.42584645826560"}}, "geometry": {"type": "Point", "coordinates": [20.732850934670115, -74.89344629267464]}}]}